MALLIGYONG-1            
1 58400U 23179A   24102.58805122  .00005705  00000+0  25393-3 0  9990
2 58400  97.4122 350.4351 0011007 129.7226 230.4982 15.21810115 21593
